{
  "norad_id": 63592,
  "name": "STARLINK-33666",
  "history": [
    {
      "epoch": "2026-03-28T18:01:12.569088",
      "apogee_km": 484.09216782906697,
      "perigee_km": 481.996076996169,
      "latitude_deg": -36.94617790628308,
      "longitude_deg": -108.71936768013984,
      "semi_major_axis_km": 6861.181122412618,
      "eccentricity": 0.00015275,
      "inclination_deg": 43.0031,
      "raan_deg": 214.2102,
      "arg_perigee_deg": 290.3074,
      "mean_anomaly_deg": 69.7613,
      "mean_motion_rev_day": 15.27581661
    }
  ]
}